QIANFAN-9               
1 60387U 24140J   26001.97806677  .00000187  00000+0  27062-3 0  9999
2 60387  88.9780 297.2449 0017122 133.5862 226.6714 13.50986534 70069
QIANFAN-10              
1 60388U 24140K   26001.98224103  .00000189  00000+0  27412-3 0  9990
2 60388  88.9790 296.5936 0016151 112.1382 248.1486 13.50986899 70198
QIANFAN-11              
1 60389U 24140L   26001.94532075  .00000172  00000+0  24710-3 0  9997
2 60389  88.9716 297.1696 0015185 132.7365 227.5067 13.50982996 69842
QIANFAN-12              
1 60390U 24140M   26001.89173449  .00000188  00000+0  27173-3 0  9992
2 60390  88.9759 297.2273 0013753 139.9767 220.2401 13.50983997 69964
QIANFAN-13              
1 60391U 24140N   26001.93698697  .00000182  00000+0  26359-3 0  9994
2 60391  88.9771 297.3250 0013509 142.3032 217.9068 13.50984493 69994
QIANFAN-14              
1 60392U 24140P   26001.96159949  .00000188  00000+0  27265-3 0  9993
2 60392  88.9750 297.2158 0017163 143.8007 216.4309 13.50983956 70005
QIANFAN-15              
1 60393U 24140Q   26001.89583067  .00000180  00000+0  25990-3 0  9993
2 60393  88.9774 297.1838 0013394 129.2025 231.0317 13.50982693 69980
QIANFAN-16              
1 60394U 24140R   26001.95759313  .00000183  00000+0  26482-3 0  9990
2 60394  88.9777 297.2982 0015010 146.7756 213.4340 13.50987923 69900
